OBJECT_NAME,OBJECT_ID,EPOCH,MEAN_MOTION,ECCENTRICITY,INCLINATION,RA_OF_ASC_NODE,ARG_OF_PERICENTER,MEAN_ANOMALY,EPHEMERIS_TYPE,CLASSIFICATION_TYPE,NORAD_CAT_ID,ELEMENT_SET_NO,REV_AT_EPOCH,BSTAR,MEAN_MOTION_DOT,MEAN_MOTION_DDOT
2026-134A,2026-134A,2026-07-08T19:13:58.596096,15.09423719,.0015556,97.7005,259.9899,192.5685,167.5158,0,U,69538,999,357,.24397904E-3,.3846E-4,0
2026-134B,2026-134B,2026-07-09T03:07:42.062880,15.09582445,.00156542,97.6982,260.3187,193.7119,166.3687,0,U,69539,999,361,.21454823E-3,.3389E-4,0
2026-134C,2026-134C,2026-07-09T03:06:58.699584,15.09614585,.00150814,97.6988,260.3210,194.8355,165.2434,0,U,69540,999,361,.21175187E-3,.3346E-4,0
2026-134D,2026-134D,2026-07-08T17:32:59.762400,15.09670232,.00161068,97.7026,259.9343,196.0280,164.0442,0,U,69541,999,355,.23105921E-3,.3665E-4,0
2026-134E,2026-134E,2026-07-09T03:05:09.927168,15.09694088,.00158586,97.7045,260.3400,195.3124,164.7627,0,U,69542,999,361,.21036247E-3,.3332E-4,0
2026-134F,2026-134F,2026-07-09T03:04:07.101408,15.09739668,.00151404,97.6998,260.3268,196.9047,163.1679,0,U,69543,999,361,.20623134E-3,.3269E-4,0
2026-134G,2026-134G,2026-07-09T20:31:59.272032,15.09830342,.0015644,97.7044,261.0745,195.0295,165.0471,0,U,69544,999,372,.21643E-3,.3443E-4,0
2026-134H,2026-134H,2026-07-08T22:14:23.910432,15.09890455,.0015416,97.7027,260.1391,199.7422,160.3212,0,U,69545,999,357,.2244696E-3,.3579E-4,0
STARLINK-37880,2026-135A,2026-07-09T20:00:01.999008,15.58288112,.0002002,97.2851,219.0683,102.6931,189.0198,0,U,69546,999,494,-.35447E-1,-.2353767E-1,0
STARLINK-37881,2026-135B,2026-07-09T20:00:01.999008,15.68775680,.0001606,97.2853,219.1166,71.1456,342.5316,0,U,69547,999,494,-.26223E-1,-.2598245E-1,0
STARLINK-37265,2026-135C,2026-07-09T20:00:01.999008,15.77707306,.0001947,97.2848,219.1414,74.5688,35.3704,0,U,69548,999,494,-.1824E-1,-.2586616E-1,0
STARLINK-37871,2026-135D,2026-07-09T20:00:01.999008,15.66566664,.0001643,97.2852,219.1152,73.8869,336.8882,0,U,69549,999,494,-.28579E-1,-.2588149E-1,0
STARLINK-37865,2026-135E,2026-07-09T20:00:01.999008,15.67580446,.0001725,97.2850,219.1220,75.7890,351.5758,0,U,69550,999,494,-.26718E-1,-.2530467E-1,0
STARLINK-37862,2026-135F,2026-07-08T05:25:08.609376,15.80784297,.00009425,97.2823,217.4548,20.2212,339.9093,0,U,69551,999,358,.62651599E-4,.11858E-3,0
STARLINK-37861,2026-135G,2026-07-09T20:00:01.999008,15.69951160,.0001874,97.2850,219.1384,77.8800,23.6279,0,U,69552,999,494,-.25378E-1,-.2635073E-1,0
STARLINK-37859,2026-135H,2026-07-09T20:00:01.999008,15.69939261,.0001925,97.2849,219.1463,75.1162,45.0447,0,U,69553,999,494,-.252E-1,-.2618014E-1,0
STARLINK-37860,2026-135J,2026-07-09T20:00:01.999008,15.75650035,.000198,97.2850,219.1561,69.0635,76.3021,0,U,69554,999,494,-.20058E-1,-.2656486E-1,0
STARLINK-37858,2026-135K,2026-07-09T20:00:01.999008,15.71932086,.0001965,97.2849,219.1567,78.0732,66.7532,0,U,69555,999,494,-.22792E-1,-.258109E-1,0
STARLINK-37927,2026-135L,2026-07-09T20:00:01.999008,15.67638279,.0001878,97.2849,219.1427,79.8496,33.3814,0,U,69556,999,494,-.26585E-1,-.2524936E-1,0
STARLINK-37929,2026-135M,2026-07-09T20:00:01.999008,15.62687306,.0001481,97.2851,219.1279,73.2270,356.1754,0,U,69557,999,495,-.32198E-1,-.2509221E-1,0
STARLINK-37954,2026-135N,2026-07-09T20:00:01.999008,15.62753563,.0001471,97.2852,219.1302,71.2957,3.6026,0,U,69558,999,495,-.31345E-1,-.2456838E-1,0
STARLINK-37958,2026-135P,2026-07-07T10:57:14.517792,15.81197842,.00008161,97.2854,216.6654,105.5963,254.5396,0,U,69559,999,346,.18839808E-2,.383711E-2,0
STARLINK-37950,2026-135Q,2026-07-09T20:00:01.999008,15.72592294,.0001959,97.2847,219.1682,83.8767,89.1003,0,U,69560,999,495,-.22484E-1,-.2613919E-1,0
STARLINK-37952,2026-135R,2026-07-09T20:00:01.999008,15.67293714,.0002054,97.2846,219.1559,82.3628,62.0302,0,U,69561,999,495,-.2685E-1,-.2516E-1,0
STARLINK-37935,2026-135S,2026-07-09T20:00:01.999008,15.61900930,.0001565,97.2853,219.1374,75.1310,16.8943,0,U,69562,999,495,-.32429E-1,-.2458266E-1,0
STARLINK-37936,2026-135T,2026-07-09T20:00:01.999008,15.63746295,.0001971,97.2851,219.1633,70.4918,81.9629,0,U,69563,999,495,-.29663E-1,-.2423251E-1,0
STARLINK-37932,2026-135U,2026-07-08T14:04:08.405760,15.80893645,.00015848,97.2839,217.8870,53.5074,306.6340,0,U,69564,999,364,.14234719E-2,.282538E-2,0
STARLINK-37916,2026-135V,2026-07-09T20:00:01.999008,15.68916000,.0001994,97.2845,219.1859,95.8542,112.3617,0,U,69565,999,495,-.24003E-1,-.2417911E-1,0
STARLINK-37909,2026-135W,2026-07-09T18:46:22.359072,15.79877172,.0001409,97.2847,219.1660,104.7237,255.4187,0,U,69566,999,383,-.49864E-2,-.832474E-2,0
STARLINK-37934,2026-135X,2026-07-07T10:38:05.764992,15.81011723,.00032614,97.2845,216.6838,125.2579,234.8995,0,U,69567,999,346,.14681327E-2,.293381E-2,0
