2026-134A               
1 69538U 26134A   26189.80137264  .00003846  00000+0  24398-3 0  9993
2 69538  97.7005 259.9899 0015556 192.5685 167.5158 15.09423719  3579
2026-134B               
1 69539U 26134B   26190.13034795  .00003389  00000+0  21455-3 0  9990
2 69539  97.6982 260.3187 0015654 193.7119 166.3687 15.09582445  3614
2026-134C               
1 69540U 26134C   26190.12984606  .00003346  00000+0  21175-3 0  9998
2 69540  97.6988 260.3210 0015081 194.8355 165.2434 15.09614585  3616
2026-134D               
1 69541U 26134D   26189.73124725  .00003665  00000+0  23106-3 0  9992
2 69541  97.7026 259.9343 0016106 196.0280 164.0442 15.09670232  3552
2026-134E               
1 69542U 26134E   26190.12858712  .00003332  00000+0  21036-3 0  9999
2 69542  97.7045 260.3400 0015858 195.3124 164.7627 15.09694088  3610
2026-134F               
1 69543U 26134F   26190.12785997  .00003269  00000+0  20623-3 0  9994
2 69543  97.6998 260.3268 0015140 196.9047 163.1679 15.09739668  3618
2026-134G               
1 69544U 26134G   26190.85554713  .00003443  00000+0  21643-3 0  9992
2 69544  97.7044 261.0745 0015644 195.0295 165.0471 15.09830342  3728
2026-134H               
1 69545U 26134H   26189.92666563  .00003579  00000+0  22447-3 0  9999
2 69545  97.7027 260.1391 0015416 199.7422 160.3212 15.09890455  3572
STARLINK-37880          
1 69546U 26135A   26190.83335647 -.02353767  00000+0 -35447-1 0  9992
2 69546  97.2851 219.0683 0002002 102.6931 189.0198 15.58288112  4943
STARLINK-37881          
1 69547U 26135B   26190.83335647 -.02598245  00000+0 -26223-1 0  9997
2 69547  97.2853 219.1166 0001606  71.1456 342.5316 15.68775680  4944
STARLINK-37265          
1 69548U 26135C   26190.83335647 -.02586616  00000+0 -18240-1 0  9997
2 69548  97.2848 219.1414 0001947  74.5688  35.3704 15.77707306  4945
STARLINK-37871          
1 69549U 26135D   26190.83335647 -.02588149  00000+0 -28579-1 0  9997
2 69549  97.2852 219.1152 0001643  73.8869 336.8882 15.66566664  4940
STARLINK-37865          
1 69550U 26135E   26190.83335647 -.02530467  00000+0 -26718-1 0  9992
2 69550  97.2850 219.1220 0001725  75.7890 351.5758 15.67580446  4943
STARLINK-37862          
1 69551U 26135F   26189.22579409  .00011858  00000+0  62652-4 0  9994
2 69551  97.2823 217.4548 0000942  20.2212 339.9093 15.80784297  3587
STARLINK-37861          
1 69552U 26135G   26190.83335647 -.02635073  00000+0 -25378-1 0  9994
2 69552  97.2850 219.1384 0001874  77.8800  23.6279 15.69951160  4947
STARLINK-37859          
1 69553U 26135H   26190.83335647 -.02618014  00000+0 -25200-1 0  9995
2 69553  97.2849 219.1463 0001925  75.1162  45.0447 15.69939261  4946
STARLINK-37860          
1 69554U 26135J   26190.83335647 -.02656486  00000+0 -20058-1 0  9997
2 69554  97.2850 219.1561 0001980  69.0635  76.3021 15.75650035  4947
STARLINK-37858          
1 69555U 26135K   26190.83335647 -.02581090  00000+0 -22792-1 0  9993
2 69555  97.2849 219.1567 0001965  78.0732  66.7532 15.71932086  4948
STARLINK-37927          
1 69556U 26135L   26190.83335647 -.02524936  00000+0 -26585-1 0  9994
2 69556  97.2849 219.1427 0001878  79.8496  33.3814 15.67638279  4948
STARLINK-37929          
1 69557U 26135M   26190.83335647 -.02509221  00000+0 -32198-1 0  9992
2 69557  97.2851 219.1279 0001481  73.2270 356.1754 15.62687306  4955
STARLINK-37954          
1 69558U 26135N   26190.83335647 -.02456838  00000+0 -31345-1 0  9991
2 69558  97.2852 219.1302 0001471  71.2957   3.6026 15.62753563  4958
STARLINK-37958          
1 69559U 26135P   26188.45641803  .00383711  00000+0  18840-2 0  9992
2 69559  97.2854 216.6654 0000816 105.5963 254.5396 15.81197842  3468
STARLINK-37950          
1 69560U 26135Q   26190.83335647 -.02613919  00000+0 -22484-1 0  9993
2 69560  97.2847 219.1682 0001959  83.8767  89.1003 15.72592294  4952
STARLINK-37952          
1 69561U 26135R   26190.83335647 -.02516000  00000+0 -26850-1 0  9998
2 69561  97.2846 219.1559 0002054  82.3628  62.0302 15.67293714  4953
STARLINK-37935          
1 69562U 26135S   26190.83335647 -.02458266  00000+0 -32429-1 0  9997
2 69562  97.2853 219.1374 0001565  75.1310  16.8943 15.61900930  4958
STARLINK-37936          
1 69563U 26135T   26190.83335647 -.02423251  00000+0 -29663-1 0  9990
2 69563  97.2851 219.1633 0001971  70.4918  81.9629 15.63746295  4956
STARLINK-37932          
1 69564U 26135U   26189.58620840  .00282538  00000+0  14235-2 0  9990
2 69564  97.2839 217.8870 0001584  53.5074 306.6340 15.80893645  3649
STARLINK-37916          
1 69565U 26135V   26190.83335647 -.02417911  00000+0 -24003-1 0  9991
2 69565  97.2845 219.1859 0001994  95.8542 112.3617 15.68916000  4954
STARLINK-37909          
1 69566U 26135W   26190.78220323 -.00832474  00000+0 -49864-2 0  9996
2 69566  97.2847 219.1660 0001409 104.7237 255.4187 15.79877172  3834
STARLINK-37934          
1 69567U 26135X   26188.44312228  .00293381  00000+0  14681-2 0  9998
2 69567  97.2845 216.6838 0003261 125.2579 234.8995 15.81011723  3469
